NORAD_CAT_ID,OBJECT_NAME,OBJECT_TYPE,EPOCH,MEAN_MOTION,ECCENTRICITY,INCLINATION,RA_OF_ASC_NODE,ARG_OF_PERICENTER,MEAN_ANOMALY,BSTAR,MEAN_MOTION_DOT,MEAN_MOTION_DDOT,TLE_LINE0,TLE_LINE1,TLE_LINE2,SEMIMAJOR_AXIS,PERIOD,APOGEE,PERIGEE,DECAYED
52488.0,STARLINK-3892,PAYLOAD,2022-12-09 09:16:13,15.08844845,0.0003019,53.218,344.6543,28.4919,331.6238,8.4119e-05,1.051e-05,0.0,0 STARLINK-3892,1 52488U 22049AP  22343.38626266  .00001051  00000-0  84119-4 0  9991,2 52488  53.2180 344.6543 0003019  28.4919 331.6238 15.08844845 33327,6917.866,95.437,541.819,537.6419999999998,0.0
52488.0,STARLINK-3892,PAYLOAD,2022-12-10 05:56:15,15.0881891,0.0002631999999999,53.2179,340.7882,32.6218,327.4937,-0.00019575,-3.401e-05,0.0,0 STARLINK-3892,1 52488U 22049AP  22344.24740379 -.00003401  00000-0 -19575-3 0  9995,2 52488  53.2179 340.7882 0002632  32.6218 327.4937 15.08818910 33454,6917.945,95.439,541.631,537.989,0.0
52488.0,STARLINK-3892,PAYLOAD,2022-12-10 09:07:01,15.08843184,0.0004309,53.2186,340.1958,24.1416,335.9777,0.00013721,1.896e-05,0.0,0 STARLINK-3892,1 52488U 22049AP  22344.37987711  .00001896  00000-0  13721-3 0  9993,2 52488  53.2186 340.1958 0004309  24.1416 335.9777 15.08843184 33478,6917.871,95.437,542.717,536.755,0.0
52488.0,STARLINK-3892,PAYLOAD,2022-12-11 05:47:03,15.08838741,0.0002793,53.2179,336.3279,35.9552,324.1627,0.00040393,6.146e-05,0.0,0 STARLINK-3892,1 52488U 22049AP  22345.24100698  .00006146  00000-0  40393-3 0  9999,2 52488  53.2179 336.3279 0002793  35.9552 324.1627 15.08838741 33601,6917.884,95.438,541.681,537.817,0.0
52488.0,STARLINK-3892,PAYLOAD,2022-12-11 08:57:49,15.0884212,0.0002733,53.2175,335.7328,36.6212,323.4967,0.00074187,0.00011539,0.0,0 STARLINK-3892,1 52488U 22049AP  22345.37348925  .00011539  00000-0  74187-3 0  9990,2 52488  53.2175 335.7328 0002733  36.6212 323.4967 15.08842120 33469,6917.874,95.437,541.63,537.8480000000002,0.0
52488.0,STARLINK-3892,PAYLOAD,2022-12-12 08:48:35,15.08850954,0.0003006,53.2175,331.2723,33.6152,326.5031,0.00019102,2.754e-05,0.0,0 STARLINK-3892,1 52488U 22049AP  22346.36708319  .00002754  00000-0  19102-3 0  9992,2 52488  53.2175 331.2723 0003006  33.6152 326.5031 15.08850954 33777,6917.847,95.437,541.7909999999998,537.632,0.0
52488.0,STARLINK-3892,PAYLOAD,2022-12-13 05:28:36,15.08850564,0.0002851,53.2177,327.4069,35.3779,324.7402,0.00021729,3.172e-05,0.0,0 STARLINK-3892,1 52488U 22049AP  22347.22819923  .00003172  00000-0  21729-3 0  9995,2 52488  53.2177 327.4069 0002851  35.3779 324.7402 15.08850564 33746,6917.848000000001,95.437,541.685,537.741,0.0
52488.0,STARLINK-3892,PAYLOAD,2022-12-14 08:30:09,15.08839651,0.0002814,53.2178,322.353,26.6481,333.4656,0.00017614,2.516e-05,0.0,0 STARLINK-3892,1 52488U 22049AP  22348.35427381  .00002516  00000-0  17614-3 0  9992,2 52488  53.2178 322.3530 0002814  26.6481 333.4656 15.08839651 34075,6917.880999999999,95.438,541.693,537.8,0.0
52488.0,STARLINK-3892,PAYLOAD,2022-12-14 14:51:41,15.0884691,0.0002859,53.2183,321.1637,34.8985,325.2194,0.00012775,1.746e-05,0.0,0 STARLINK-3892,1 52488U 22049AP  22348.61923208  .00001746  00000-0  12775-3 0  9997,2 52488  53.2183 321.1637 0002859  34.8985 325.2194 15.08846910 33953,6917.859,95.437,541.702,537.746,0.0
52488.0,STARLINK-3892,PAYLOAD,2022-12-15 09:56:19,15.08840045,0.0002737,53.2179,317.5962,29.6012,330.5135,5.0373e-05,5.13e-06,0.0,0 STARLINK-3892,1 52488U 22049AP  22349.41411686  .00000513  00000-0  50373-4 0  9996,2 52488  53.2179 317.5962 0002737  29.6012 330.5135 15.08840045 34077,6917.88,95.438,541.639,537.852,0.0
52488.0,STARLINK-3892,PAYLOAD,2022-12-15 14:42:28,15.08846604,0.0002721,53.218,316.7038,31.0912,329.0241,0.00016058,2.269e-05,0.0,0 STARLINK-3892,1 52488U 22049AP  22349.61283509  .00002269  00000-0  16058-3 0  9990,2 52488  53.2180 316.7038 0002721  31.0912 329.0241 15.08846604 34262,6917.86,95.437,541.6080000000002,537.8430000000002,0.0
52488.0,STARLINK-3892,PAYLOAD,2022-12-16 05:00:57,15.08850339,0.0002671,53.2177,314.0277,28.8532,331.2607,0.00040755,6.206e-05,0.0,0 STARLINK-3892,1 52488U 22049AP  22350.20899356  .00006206  00000-0  40755-3 0  9996,2 52488  53.2177 314.0277 0002671  28.8532 331.2607 15.08850339 34193,6917.849,95.437,541.562,537.866,0.0
52488.0,STARLINK-3892,PAYLOAD,2022-12-16 20:54:48,15.08834769,0.0002625,53.2171,311.0541,30.5128,329.6016,-4.798300000000001e-05,-1.052e-05,0.0,0 STARLINK-3892,1 52488U 22049AP  22350.87139790 -.00001052  00000-0 -47983-4 0  9995,2 52488  53.2171 311.0541 0002625  30.5128 329.6016 15.08834769 34451,6917.896,95.438,541.577,537.945,0.0
52488.0,STARLINK-3892,PAYLOAD,2022-12-17 09:37:53,15.08843485,0.0002659,53.2183,308.6751,30.6981,329.4166,7.7648e-05,9.48e-06,0.0,0 STARLINK-3892,1 52488U 22049AP  22351.40131643  .00000948  00000-0  77648-4 0  9996,2 52488  53.2183 308.6751 0002659  30.6981 329.4166 15.08843485 34374,6917.87,95.437,541.5740000000002,537.895,0.0
52488.0,STARLINK-3892,PAYLOAD,2022-12-18 04:42:32,15.0883251,0.0002422,53.2189,305.1063,30.346,329.7672,-3.572e-06,-3.45e-06,0.0,0 STARLINK-3892,1 52488U 22049AP  22352.19620846 -.00000345  00000-0 -35720-5 0  9990,2 52488  53.2189 305.1063 0002422  30.3460 329.7672 15.08832510 34658,6917.903,95.438,541.444,538.0930000000002,0.0
52488.0,STARLINK-3892,PAYLOAD,2022-12-18 09:28:41,15.08835743,0.0002418,53.2187,304.2137,29.1388,330.9739,1.1730999999999997e-05,-1.02e-06,0.0,0 STARLINK-3892,1 52488U 22049AP  22352.39492618 -.00000102  00000-0  11731-4 0  9991,2 52488  53.2187 304.2137 0002418  29.1388 330.9739 15.08835743 34523,6917.893,95.438,541.431,538.086,0.0
52488.0,STARLINK-3892,PAYLOAD,2022-12-18 14:14:51,15.08837298,0.0002685,53.2188,303.3215,26.8509,333.2622,6.1872000000000015e-06,-1.9e-06,0.0,0 STARLINK-3892,1 52488U 22049AP  22352.59364626 -.00000190  00000-0  61872-5 0  9999,2 52488  53.2188 303.3215 0002685  26.8509 333.2622 15.08837298 34553,6917.889,95.438,541.611,537.896,0.0
52488.0,STARLINK-3892,PAYLOAD,2022-12-19 06:08:42,15.08840022,0.0002515,53.2188,300.3483,28.5431,331.5698,0.00010717,1.418e-05,0.0,0 STARLINK-3892,1 52488U 22049AP  22353.25604622  .00001418  00000-0  10717-3 0  9999,2 52488  53.2188 300.3483 0002515  28.5431 331.5698 15.08840022 34814,6917.88,95.438,541.485,538.005,0.0
52488.0,STARLINK-3892,PAYLOAD,2022-12-19 07:44:05,15.08842842,0.0002504,53.2188,300.051,29.1866,330.9265,0.00013685,1.89e-05,0.0,0 STARLINK-3892,1 52488U 22049AP  22353.32228388  .00001890  00000-0  13685-3 0  9999,2 52488  53.2188 300.0510 0002504  29.1866 330.9265 15.08842842 34667,6917.871999999999,95.437,541.469,538.004,0.0
52488.0,STARLINK-3892,PAYLOAD,2022-12-19 14:05:37,15.08855404,0.0002529,53.2188,298.8618,28.4066,331.7064,0.00018374,2.638e-05,0.0,0 STARLINK-3892,1 52488U 22049AP  22353.58723409  .00002638  00000-0  18374-3 0  9992,2 52488  53.2188 298.8618 0002529  28.4066 331.7064 15.08855404 34700,6917.833000000001,95.437,541.448,537.9490000000002,0.0
52488.0,STARLINK-3892,PAYLOAD,2022-12-19 23:37:55,15.08848572,0.0002481,53.2188,297.0777,28.3451,331.7676,0.0002391,3.52e-05,0.0,0 STARLINK-3892,1 52488U 22049AP  22353.98467564  .00003520  00000-0  23910-3 0  9996,2 52488  53.2188 297.0777 0002481  28.3451 331.7676 15.08848572 34922,6917.854,95.437,541.436,538.003,0.0
52488.0,STARLINK-3892,PAYLOAD,2022-12-20 05:59:28,15.08865168,0.0002572,53.218,295.8883,29.9102,330.2036,0.00054174,8.35e-05,0.0,0 STARLINK-3892,1 52488U 22049AP  22354.24963344  .00008350  00000-0  54174-3 0  9995,2 52488  53.2180 295.8883 0002572  29.9102 330.2036 15.08865168 34967,6917.803000000001,95.436,541.448,537.889,0.0
52488.0,STARLINK-3892,PAYLOAD,2022-12-20 13:56:24,15.0885682,0.0002697,53.2178,294.4014,30.5558,329.5591,0.00031973,4.806e-05,0.0,0 STARLINK-3892,1 52488U 22049AP  22354.58083600  .00004806  00000-0  31973-3 0  9994,2 52488  53.2178 294.4014 0002697  30.5558 329.5591 15.08856820 35015,6917.829000000002,95.436,541.56,537.828,0.0
52488.0,STARLINK-3892,PAYLOAD,2022-12-21 02:39:29,15.08836897,0.0002722,53.218,292.0226,22.5177,337.5934,-0.00032762,-5.499e-05,0.0,0 STARLINK-3892,1 52488U 22049AP  22355.11075744 -.00005499  00000-0 -32762-3 0  9992,2 52488  53.2180 292.0226 0002722  22.5177 337.5934 15.08836897 35094,6917.89,95.438,541.638,537.872,0.0
52488.0,STARLINK-3892,PAYLOAD,2022-12-22 04:05:40,15.08829809,0.0002665,53.2179,287.2652,26.579,333.5338,-6.2088e-05,-1.276e-05,0.0,0 STARLINK-3892,1 52488U 22049AP  22356.17061064 -.00001276  00000-0 -62088-4 0  9993,2 52488  53.2179 287.2652 0002665  26.5790 333.5338 15.08829809 35259,6917.9119999999975,95.438,541.62,537.933,0.0
52488.0,STARLINK-3892,PAYLOAD,2022-12-22 12:02:36,15.0883426,0.0002613,53.218,285.7781,31.1521,328.9626,9.9013e-05,1.288e-05,0.0,0 STARLINK-3892,1 52488U 22049AP  22356.50181197  .00001288  00000-0  99013-4 0  9999,2 52488  53.2180 285.7781 0002613  31.1521 328.9626 15.08834260 35147,6917.898,95.438,541.571,537.955,0.0
52488.0,STARLINK-3892,PAYLOAD,2022-12-22 18:24:09,15.08837543,0.0002709,53.2178,284.5883,26.2756,333.8373,0.00038136,5.786e-05,0.0,0 STARLINK-3892,1 52488U 22049AP  22356.76677305  .00005786  00000-0  38136-3 0  9993,2 52488  53.2178 284.5883 0002709  26.2756 333.8373 15.08837543 35180,6917.888000000001,95.438,541.627,537.879,0.0
52488.0,STARLINK-3892,PAYLOAD,2022-12-23 05:31:51,15.08837069,0.000271,53.2177,282.5071,27.9824,332.1314,0.00033308,5.016e-05,0.0,0 STARLINK-3892,1 52488U 22049AP  22357.23045609  .00005016  00000-0  33308-3 0  9994,2 52488  53.2177 282.5071 0002710  27.9824 332.1314 15.08837069 35418,6917.889,95.438,541.629,537.88,0.0
52488.0,STARLINK-3892,PAYLOAD,2022-12-23 11:53:23,15.08842946,0.0002591,53.2178,281.3183,26.8353,333.2772,0.00035545,5.374e-05,0.0,0 STARLINK-3892,1 52488U 22049AP  22357.49541339  .00005374  00000-0  35545-3 0  9995,2 52488  53.2178 281.3183 0002591  26.8353 333.2772 15.08842946 35298,6917.871,95.437,541.529,537.944,0.0
